COSMOS 2251 DEB         
1 34383U 93036PY  17345.87705567  .00000798  00000-0  20424-3 0  9996
2 34383  74.0387 129.5303 0019469 264.9148 215.7564 14.51937015464121
